{
  "type": "FeatureCollection",
  "features": [
    {
      "type": "Feature",
      "properties": {
        "norad_id": 34299,
        "name": "COSMOS 2251 DEB",
        "group": "cosmos-2251-debris",
        "lat": -2.026447855187503,
        "lon": 160.61313362172348,
        "alt_km": 375.4198108748842,
        "timestamp": "2025-12-10T07:43:55.173134+00:00",
        "meta_object_name": "COSMOS 2251 DEB",
        "meta_object_id": "1993-036MV",
        "meta_epoch": "2025-12-09T17:10:35.717088",
        "meta_mean_motion": 15.67339414,
        "meta_eccentricity": 0.0021789,
        "meta_inclination": 73.9789,
        "meta_ra_of_asc_node": 341.4011,
        "meta_arg_of_pericenter": 57.7825,
        "meta_mean_anomaly": 302.5505,
        "meta_ephemeris_type": 0,
        "meta_classification_type": "U",
        "meta_norad_cat_id": 34299,
        "meta_element_set_no": 999,
        "meta_rev_at_epoch": 88963,
        "meta_bstar": 0.0068566,
        "meta_mean_motion_dot": 0.00823913,
        "meta_mean_motion_ddot": 0,
        "tle_line1": "1 34299U 93036MV  25343.71569117  .00823913  00000+0  68566-2 0  9990",
        "tle_line2": "2 34299  73.9789 341.4011 0021789  57.7825 302.5505 15.67339414889634"
      },
      "geometry": {
        "type": "Point",
        "coordinates": [
          160.61313362172348,
          -2.026447855187503
        ]
      }
    },
    {
      "type": "Feature",
      "properties": {
        "norad_id": 34301,
        "name": "COSMOS 2251 DEB",
        "group": "cosmos-2251-debris",
        "lat": -73.76382764369629,
        "lon": 71.55924716611834,
        "alt_km": 616.0676690402242,
        "timestamp": "2025-12-10T07:43:55.173145+00:00",
        "meta_object_name": "COSMOS 2251 DEB",
        "meta_object_id": "1993-036MX",
        "meta_epoch": "2025-12-09T00:30:20.035008",
        "meta_mean_motion": 14.84254528,
        "meta_eccentricity": 0.00117791,
        "meta_inclination": 74.0056,
        "meta_ra_of_asc_node": 174.0909,
        "meta_arg_of_pericenter": 233.226,
        "meta_mean_anomaly": 284.4717,
        "meta_ephemeris_type": 0,
        "meta_classification_type": "U",
        "meta_norad_cat_id": 34301,
        "meta_element_set_no": 999,
        "meta_rev_at_epoch": 88345,
        "meta_bstar": 0.0032627811,
        "meta_mean_motion_dot": 0.00027446,
        "meta_mean_motion_ddot": 0,
        "tle_line1": "1 34301U 93036MX  25343.02106522  .00027446  00000+0  32628-2 0  9992",
        "tle_line2": "2 34301  74.0056 174.0909 0011779 233.2260 284.4717 14.84254528883452"
      },
      "geometry": {
        "type": "Point",
        "coordinates": [
          71.55924716611834,
          -73.76382764369629
        ]
      }
    },
    {
      "type": "Feature",
      "properties": {
        "norad_id": 34302,
        "name": "COSMOS 2251 DEB",
        "group": "cosmos-2251-debris",
        "lat": 27.719590849559726,
        "lon": 136.57352324584602,
        "alt_km": 719.3848566253082,
        "timestamp": "2025-12-10T07:43:55.173155+00:00",
        "meta_object_name": "COSMOS 2251 DEB",
        "meta_object_id": "1993-036MY",
        "meta_epoch": "2025-12-09T16:39:44.489088",
        "meta_mean_motion": 14.39313565,
        "meta_eccentricity": 0.0078583,
        "meta_inclination": 74.178,
        "meta_ra_of_asc_node": 129.153,
        "meta_arg_of_pericenter": 345.2675,
        "meta_mean_anomaly": 30.9395,
        "meta_ephemeris_type": 0,
        "meta_classification_type": "U",
        "meta_norad_cat_id": 34302,
        "meta_element_set_no": 999,
        "meta_rev_at_epoch": 87677,
        "meta_bstar": 0.0010469,
        "meta_mean_motion_dot": 3.347e-05,
        "meta_mean_motion_ddot": 0,
        "tle_line1": "1 34302U 93036MY  25343.69426492  .00003347  00000+0  10469-2 0  9990",
        "tle_line2": "2 34302  74.1780 129.1530 0078583 345.2675  30.9395 14.39313565876779"
      },
      "geometry": {
        "type": "Point",
        "coordinates": [
          136.57352324584602,
          27.719590849559726
        ]
      }
    },
    {
      "type": "Feature",
      "properties": {
        "norad_id": 34303,
        "name": "COSMOS 2251 DEB",
        "group": "cosmos-2251-debris",
        "lat": 70.86949272931888,
        "lon": -11.596164705194175,
        "alt_km": 609.2990871414322,
        "timestamp": "2025-12-10T07:43:55.173165+00:00",
        "meta_object_name": "COSMOS 2251 DEB",
        "meta_object_id": "1993-036MZ",
        "meta_epoch": "2025-12-09T13:44:43.304352",
        "meta_mean_motion": 14.54381739,
        "meta_eccentricity": 0.013496,
        "meta_inclination": 74.0057,
        "meta_ra_of_asc_node": 294.044,
        "meta_arg_of_pericenter": 73.1991,
        "meta_mean_anomaly": 43.66,
        "meta_ephemeris_type": 0,
        "meta_classification_type": "U",
        "meta_norad_cat_id": 34303,
        "meta_element_set_no": 999,
        "meta_rev_at_epoch": 87916,
        "meta_bstar": 0.0020629,
        "meta_mean_motion_dot": 9.886e-05,
        "meta_mean_motion_ddot": 0,
        "tle_line1": "1 34303U 93036MZ  25343.57272343  .00009886  00000+0  20629-2 0  9995",
        "tle_line2": "2 34303  74.0057 294.0440 0134960  73.1991  43.6600 14.54381739879169"
      },
      "geometry": {
        "type": "Point",
        "coordinates": [
          -11.596164705194175,
          70.86949272931888
        ]
      }
    },
    {
      "type": "Feature",
      "properties": {
        "norad_id": 34304,
        "name": "COSMOS 2251 DEB",
        "group": "cosmos-2251-debris",
        "lat": -22.881721753462383,
        "lon": 120.105791980085,
        "alt_km": 739.616342016945,
        "timestamp": "2025-12-10T07:43:55.173175+00:00",
        "meta_object_name": "COSMOS 2251 DEB",
        "meta_object_id": "1993-036NA",
        "meta_epoch": "2025-12-09T16:53:11.402880",
        "meta_mean_motion": 14.37813011,
        "meta_eccentricity": 0.0128948,
        "meta_inclination": 74.0136,
        "meta_ra_of_asc_node": 128.1953,
        "meta_arg_of_pericenter": 266.5984,
        "meta_mean_anomaly": 107.7814,
        "meta_ephemeris_type": 0,
        "meta_classification_type": "U",
        "meta_norad_cat_id": 34304,
        "meta_element_set_no": 999,
        "meta_rev_at_epoch": 87253,
        "meta_bstar": 0.0023498,
        "meta_mean_motion_dot": 7.775e-05,
        "meta_mean_motion_ddot": 0,
        "tle_line1": "1 34304U 93036NA  25343.70360420  .00007775  00000+0  23498-2 0  9997",
        "tle_line2": "2 34304  74.0136 128.1953 0128948 266.5984 107.7814 14.37813011872530"
      },
      "geometry": {
        "type": "Point",
        "coordinates": [
          120.105791980085,
          -22.881721753462383
        ]
      }
    },
    {
      "type": "Feature",
      "properties": {
        "norad_id": 34307,
        "name": "COSMOS 2251 DEB",
        "group": "cosmos-2251-debris",
        "lat": -8.827985882489244,
        "lon": 139.5402887519764,
        "alt_km": 833.9014008813147,
        "timestamp": "2025-12-10T07:43:55.173186+00:00",
        "meta_object_name": "COSMOS 2251 DEB",
        "meta_object_id": "1993-036ND",
        "meta_epoch": "2025-12-09T08:22:42.189024",
        "meta_mean_motion": 13.54314122,
        "meta_eccentricity": 0.03921698,
        "meta_inclination": 74.0531,
        "meta_ra_of_asc_node": 318.5561,
        "meta_arg_of_pericenter": 150.2438,
        "meta_mean_anomaly": 333.519,
        "meta_ephemeris_type": 0,
        "meta_classification_type": "U",
        "meta_norad_cat_id": 34307,
        "meta_element_set_no": 999,
        "meta_rev_at_epoch": 82816,
        "meta_bstar": 0.00091808531,
        "meta_mean_motion_dot": 1.002e-05,
        "meta_mean_motion_ddot": 0,
        "tle_line1": "1 34307U 93036ND  25343.34909941  .00001002  00000+0  91809-3 0  9996",
        "tle_line2": "2 34307  74.0531 318.5561 0392169 150.2438 333.5190 13.54314122828166"
      },
      "geometry": {
        "type": "Point",
        "coordinates": [
          139.5402887519764,
          -8.827985882489244
        ]
      }
    },
    {
      "type": "Feature",
      "properties": {
        "norad_id": 34313,
        "name": "COSMOS 2251 DEB",
        "group": "cosmos-2251-debris",
        "lat": -16.033368579593837,
        "lon": -54.16644089474825,
        "alt_km": 516.5040536757342,
        "timestamp": "2025-12-10T07:43:55.173195+00:00",
        "meta_object_name": "COSMOS 2251 DEB",
        "meta_object_id": "1993-036NK",
        "meta_epoch": "2025-12-09T08:05:04.426656",
        "meta_mean_motion": 15.18202423,
        "meta_eccentricity": 0.00114496,
        "meta_inclination": 73.9729,
        "meta_ra_of_asc_node": 312.639,
        "meta_arg_of_pericenter": 85.6704,
        "meta_mean_anomaly": 274.58,
        "meta_ephemeris_type": 0,
        "meta_classification_type": "U",
        "meta_norad_cat_id": 34313,
        "meta_element_set_no": 999,
        "meta_rev_at_epoch": 89013,
        "meta_bstar": 0.0052824209,
        "meta_mean_motion_dot": 0.00109858,
        "meta_mean_motion_ddot": 0,
        "tle_line1": "1 34313U 93036NK  25343.33685679  .00109858  00000+0  52824-2 0  9992",
        "tle_line2": "2 34313  73.9729 312.6390 0011449  85.6704 274.5800 15.18202423890131"
      },
      "geometry": {
        "type": "Point",
        "coordinates": [
          -54.16644089474825,
          -16.033368579593837
        ]
      }
    }
  ]
}